
# G01 (GNSS)
1 62339U 24242A   25326.93318314 -.00000072  00000+0  00000+0 0  9995
2 62339  54.9294 342.5435 0011234 342.6189  16.3935  2.00567545  7118

# G03 (GNSS)
1 40294U 14068A   25327.01453818 -.00000065  00000+0  00000+0 0  9997
2 40294  56.8437  38.9093 0060896  69.5705 291.1318  2.00563752 81078

# G04 (GNSS)
1 43873U 18109A   25326.09489431  .00000013  00000+0  00000+0 0  9992
2 43873  55.5555 100.3624 0037088 194.2522 163.3091  2.00553215 50915

# G08 (GNSS)
1 40730U 15033A   25327.30620620 -.00000023  00000+0  00000+0 0  9998
2 40730  54.1478 275.5725 0109757  26.3293 334.2225  2.00566622 75868

# G10 (GNSS)
1 41019U 15062A   25326.86692554 -.00000065  00000+0  00000+0 0  9992
2 41019  56.8180  38.7712 0110207 229.4078 129.6771  2.00567211 73698

# G11 (GNSS)
1 48859U 21054A   25319.11062946 -.00000086  00000+0  00000+0 0  9998
2 48859  55.2650 341.0634 0024518 231.9656 120.1891  2.00555149 32459

# G14 (GNSS)
1 46826U 20078A   25316.12603230 -.00000034  00000+0  00000+0 0  9993
2 46826  54.0224 219.5836 0063912 203.4987 326.7753  2.00567032 37157

# G18 (GNSS)
1 44506U 19056A   25327.47672714 -.00000067  00000+0  00000+0 0  9999
2 44506  55.7286 339.3184 0057720 198.1122 333.3115  2.00565829 45948

# G21 (GNSS)
1 64202U 25116A   25327.67289116 -.00000064  00000+0  00000+0 0  9997
2 64202  55.0910  39.4120 0003975 309.7708  53.4490  2.00559656  3751

# G23 (GNSS)
1 45854U 20041A   25327.31113225 -.00000065  00000+0  00000+0 0  9990
2 45854  56.5332  36.9431 0060091 202.5994 153.6341  2.00562442 39904

# G26 (GNSS)
1 40534U 15013A   25327.14476942  .00000039  00000+0  00000+0 0  9992
2 40534  53.2013 212.7018 0106181  37.9884 322.8499  2.00563722 77692

# G28 (GNSS)
1 55268U 23009A   25325.30114252  .00000078  00000+0  00000+0 0  9998
2 55268  55.1046 156.6879 0003751 358.8842 185.0588  2.00557626 21073

# G32 (GNSS)
1 41328U 16007A   25326.45043627  .00000011  00000+0  00000+0 0  9991
2 41328  55.3943  97.6623 0091157 243.0975 115.9442  2.00561835 71694
