[
    {
        "OBJECT_NAME": "NAVSTAR 72 (USA 258)",
        "OBJECT_ID": "2014-068A",
        "EPOCH": "2025-11-23T00:20:56.098752",
        "MEAN_MOTION": 2.00563752,
        "ECCENTRICITY": 0.0060896,
        "INCLINATION": 56.8437,
        "RA_OF_ASC_NODE": 38.9093,
        "ARG_OF_PERICENTER": 69.5705,
        "MEAN_ANOMALY": 291.1318,
        "EPHEMERIS_TYPE": 0,
        "CLASSIFICATION_TYPE": "U",
        "NORAD_CAT_ID": 40294,
        "ELEMENT_SET_NO": 999,
        "REV_AT_EPOCH": 8107,
        "BSTAR": 0,
        "MEAN_MOTION_DOT": -6.5e-07,
        "MEAN_MOTION_DDOT": 0
    },
    {
        "OBJECT_NAME": "NAVSTAR 73 (USA 260)",
        "OBJECT_ID": "2015-013A",
        "EPOCH": "2025-11-23T03:28:28.077888",
        "MEAN_MOTION": 2.00563722,
        "ECCENTRICITY": 0.0106181,
        "INCLINATION": 53.2013,
        "RA_OF_ASC_NODE": 212.7018,
        "ARG_OF_PERICENTER": 37.9884,
        "MEAN_ANOMALY": 322.8499,
        "EPHEMERIS_TYPE": 0,
        "CLASSIFICATION_TYPE": "U",
        "NORAD_CAT_ID": 40534,
        "ELEMENT_SET_NO": 999,
        "REV_AT_EPOCH": 7769,
        "BSTAR": 0,
        "MEAN_MOTION_DOT": 3.9e-07,
        "MEAN_MOTION_DDOT": 0
    },
    {
        "OBJECT_NAME": "NAVSTAR 74 (USA 262)",
        "OBJECT_ID": "2015-033A",
        "EPOCH": "2025-11-23T07:20:56.215680",
        "MEAN_MOTION": 2.00566622,
        "ECCENTRICITY": 0.0109757,
        "INCLINATION": 54.1478,
        "RA_OF_ASC_NODE": 275.5725,
        "ARG_OF_PERICENTER": 26.3293,
        "MEAN_ANOMALY": 334.2225,
        "EPHEMERIS_TYPE": 0,
        "CLASSIFICATION_TYPE": "U",
        "NORAD_CAT_ID": 40730,
        "ELEMENT_SET_NO": 999,
        "REV_AT_EPOCH": 7586,
        "BSTAR": 0,
        "MEAN_MOTION_DOT": -2.3e-07,
        "MEAN_MOTION_DDOT": 0
    },
    {
        "OBJECT_NAME": "NAVSTAR 75 (USA 265)",
        "OBJECT_ID": "2015-062A",
        "EPOCH": "2025-11-22T20:48:22.366656",
        "MEAN_MOTION": 2.00567211,
        "ECCENTRICITY": 0.0110207,
        "INCLINATION": 56.818,
        "RA_OF_ASC_NODE": 38.7712,
        "ARG_OF_PERICENTER": 229.4078,
        "MEAN_ANOMALY": 129.6771,
        "EPHEMERIS_TYPE": 0,
        "CLASSIFICATION_TYPE": "U",
        "NORAD_CAT_ID": 41019,
        "ELEMENT_SET_NO": 999,
        "REV_AT_EPOCH": 7369,
        "BSTAR": 0,
        "MEAN_MOTION_DOT": -6.5e-07,
        "MEAN_MOTION_DDOT": 0
    },
    {
        "OBJECT_NAME": "NAVSTAR 76 (USA 266)",
        "OBJECT_ID": "2016-007A",
        "EPOCH": "2025-11-22T10:48:37.693728",
        "MEAN_MOTION": 2.00561835,
        "ECCENTRICITY": 0.0091157,
        "INCLINATION": 55.3943,
        "RA_OF_ASC_NODE": 97.6623,
        "ARG_OF_PERICENTER": 243.0975,
        "MEAN_ANOMALY": 115.9442,
        "EPHEMERIS_TYPE": 0,
        "CLASSIFICATION_TYPE": "U",
        "NORAD_CAT_ID": 41328,
        "ELEMENT_SET_NO": 999,
        "REV_AT_EPOCH": 7169,
        "BSTAR": 0,
        "MEAN_MOTION_DOT": 1.1e-07,
        "MEAN_MOTION_DDOT": 0
    },
    {
        "OBJECT_NAME": "NAVSTAR 77 (USA 289)",
        "OBJECT_ID": "2018-109A",
        "EPOCH": "2025-11-22T02:16:38.868384",
        "MEAN_MOTION": 2.00553215,
        "ECCENTRICITY": 0.00370881,
        "INCLINATION": 55.5555,
        "RA_OF_ASC_NODE": 100.3624,
        "ARG_OF_PERICENTER": 194.2522,
        "MEAN_ANOMALY": 163.3091,
        "EPHEMERIS_TYPE": 0,
        "CLASSIFICATION_TYPE": "U",
        "NORAD_CAT_ID": 43873,
        "ELEMENT_SET_NO": 999,
        "REV_AT_EPOCH": 5091,
        "BSTAR": 0,
        "MEAN_MOTION_DOT": 1.3e-07,
        "MEAN_MOTION_DDOT": 0
    },
    {
        "OBJECT_NAME": "NAVSTAR 78 (USA 293)",
        "OBJECT_ID": "2019-056A",
        "EPOCH": "2025-11-23T11:26:29.224896",
        "MEAN_MOTION": 2.00565829,
        "ECCENTRICITY": 0.005772,
        "INCLINATION": 55.7286,
        "RA_OF_ASC_NODE": 339.3184,
        "ARG_OF_PERICENTER": 198.1122,
        "MEAN_ANOMALY": 333.3115,
        "EPHEMERIS_TYPE": 0,
        "CLASSIFICATION_TYPE": "U",
        "NORAD_CAT_ID": 44506,
        "ELEMENT_SET_NO": 999,
        "REV_AT_EPOCH": 4594,
        "BSTAR": 0,
        "MEAN_MOTION_DOT": -6.7e-07,
        "MEAN_MOTION_DDOT": 0
    },
    {
        "OBJECT_NAME": "NAVSTAR 79 (USA 304)",
        "OBJECT_ID": "2020-041A",
        "EPOCH": "2025-11-23T07:28:01.826400",
        "MEAN_MOTION": 2.00562442,
        "ECCENTRICITY": 0.0060091,
        "INCLINATION": 56.5332,
        "RA_OF_ASC_NODE": 36.9431,
        "ARG_OF_PERICENTER": 202.5994,
        "MEAN_ANOMALY": 153.6341,
        "EPHEMERIS_TYPE": 0,
        "CLASSIFICATION_TYPE": "U",
        "NORAD_CAT_ID": 45854,
        "ELEMENT_SET_NO": 999,
        "REV_AT_EPOCH": 3990,
        "BSTAR": 0,
        "MEAN_MOTION_DOT": -6.5e-07,
        "MEAN_MOTION_DDOT": 0
    },
    {
        "OBJECT_NAME": "NAVSTAR 80 (USA 309)",
        "OBJECT_ID": "2020-078A",
        "EPOCH": "2025-11-12T03:01:29.190720",
        "MEAN_MOTION": 2.00567032,
        "ECCENTRICITY": 0.0063912,
        "INCLINATION": 54.0224,
        "RA_OF_ASC_NODE": 219.5836,
        "ARG_OF_PERICENTER": 203.4987,
        "MEAN_ANOMALY": 326.7753,
        "EPHEMERIS_TYPE": 0,
        "CLASSIFICATION_TYPE": "U",
        "NORAD_CAT_ID": 46826,
        "ELEMENT_SET_NO": 999,
        "REV_AT_EPOCH": 3715,
        "BSTAR": 0,
        "MEAN_MOTION_DOT": -3.4e-07,
        "MEAN_MOTION_DDOT": 0
    },
    {
        "OBJECT_NAME": "NAVSTAR 81 (USA 319)",
        "OBJECT_ID": "2021-054A",
        "EPOCH": "2025-11-15T02:39:18.385344",
        "MEAN_MOTION": 2.00555149,
        "ECCENTRICITY": 0.0024518,
        "INCLINATION": 55.265,
        "RA_OF_ASC_NODE": 341.0634,
        "ARG_OF_PERICENTER": 231.9656,
        "MEAN_ANOMALY": 120.1891,
        "EPHEMERIS_TYPE": 0,
        "CLASSIFICATION_TYPE": "U",
        "NORAD_CAT_ID": 48859,
        "ELEMENT_SET_NO": 999,
        "REV_AT_EPOCH": 3245,
        "BSTAR": 0,
        "MEAN_MOTION_DOT": -8.6e-07,
        "MEAN_MOTION_DDOT": 0
    },
    {
        "OBJECT_NAME": "NAVSTAR 82 (USA 343)",
        "OBJECT_ID": "2023-009A",
        "EPOCH": "2025-11-21T07:13:38.713728",
        "MEAN_MOTION": 2.00557626,
        "ECCENTRICITY": 0.00037517,
        "INCLINATION": 55.1046,
        "RA_OF_ASC_NODE": 156.6879,
        "ARG_OF_PERICENTER": 358.8842,
        "MEAN_ANOMALY": 185.0588,
        "EPHEMERIS_TYPE": 0,
        "CLASSIFICATION_TYPE": "U",
        "NORAD_CAT_ID": 55268,
        "ELEMENT_SET_NO": 999,
        "REV_AT_EPOCH": 2107,
        "BSTAR": 0,
        "MEAN_MOTION_DOT": 7.8e-07,
        "MEAN_MOTION_DDOT": 0
    },
    {
        "OBJECT_NAME": "NAVSTAR 83 (USA 440)",
        "OBJECT_ID": "2024-242A",
        "EPOCH": "2025-11-22T22:23:47.023296",
        "MEAN_MOTION": 2.00567545,
        "ECCENTRICITY": 0.00112344,
        "INCLINATION": 54.9294,
        "RA_OF_ASC_NODE": 342.5435,
        "ARG_OF_PERICENTER": 342.6189,
        "MEAN_ANOMALY": 16.3935,
        "EPHEMERIS_TYPE": 0,
        "CLASSIFICATION_TYPE": "U",
        "NORAD_CAT_ID": 62339,
        "ELEMENT_SET_NO": 999,
        "REV_AT_EPOCH": 711,
        "BSTAR": 0,
        "MEAN_MOTION_DOT": -7.2e-07,
        "MEAN_MOTION_DDOT": 0
    },
    {
        "OBJECT_NAME": "NAVSTAR 84 (USA 545)",
        "OBJECT_ID": "2025-116A",
        "EPOCH": "2025-11-23T16:08:57.796224",
        "MEAN_MOTION": 2.00559656,
        "ECCENTRICITY": 0.0003975,
        "INCLINATION": 55.091,
        "RA_OF_ASC_NODE": 39.412,
        "ARG_OF_PERICENTER": 309.7708,
        "MEAN_ANOMALY": 53.449,
        "EPHEMERIS_TYPE": 0,
        "CLASSIFICATION_TYPE": "U",
        "NORAD_CAT_ID": 64202,
        "ELEMENT_SET_NO": 999,
        "REV_AT_EPOCH": 375,
        "BSTAR": 0,
        "MEAN_MOTION_DOT": -6.4e-07,
        "MEAN_MOTION_DDOT": 0
    }
]